start=new Date('2021-10-08T00:00:00.000Z').valueOf();
sats=[{"ELEMENT_SET_NO":"999","PERIAPSIS":"357.098","PERIOD":"91.732","SEMIMAJOR_AXIS":"6737.628","INCLINATION":"70.0007","MEAN_MOTION":"15.69792367","CENTER_NAME":"EARTH","TLE_LINE2":"2 49138  70.0007  60.0071 0003555 285.4993 203.8613 15.69792367  3835","BSTAR":"-0.00070648000000","COUNTRY_CODE":"US","EPHEMERIS_TYPE":"0","GP_ID":"186483794","SITE":"AFWTR","RA_OF_ASC_NODE":"60.0071","RCS_SIZE":"LARGE","NORAD_CAT_ID":"49138","OBJECT_TYPE":"PAYLOAD","OBJECT_ID":"2021-082J","APOAPSIS":"361.888","ECCENTRICITY":"0.00035550","MEAN_ANOMALY":"203.8613","OBJECT_NAME":"STARLINK-3058","MEAN_ELEMENT_THEORY":"SGP4","CLASSIFICATION_TYPE":"U","LAUNCH_DATE":"2021-09-14","EPOCH":"2021-10-07T22:00:00.999936","MEAN_MOTION_DDOT":"0.0000000000000","REV_AT_EPOCH":"383","TIME_SYSTEM":"UTC","TLE_LINE1":"1 49138U 21082J   21280.91667824 -.00083865  00000-0 -70648-3 0  9994","ARG_OF_PERICENTER":"285.4993","REF_FRAME":"TEME","FILE":"3150032","DECAY_DATE":null,"MEAN_MOTION_DOT":"-0.00083865"},{"DECAY_DATE":null,"MEAN_MOTION_DOT":"-0.00073001","FILE":"3150032","REF_FRAME":"TEME","ARG_OF_PERICENTER":"285.7405","TLE_LINE1":"1 49139U 21082K   21280.91667824 -.00073001  00000-0 -61437-3 0  9992","REV_AT_EPOCH":"383","TIME_SYSTEM":"UTC","EPOCH":"2021-10-07T22:00:00.999936","MEAN_MOTION_DDOT":"0.0000000000000","LAUNCH_DATE":"2021-09-14","CLASSIFICATION_TYPE":"U","MEAN_ELEMENT_THEORY":"SGP4","OBJECT_NAME":"STARLINK-3057","MEAN_ANOMALY":"201.5178","ECCENTRICITY":"0.00035790","APOAPSIS":"361.953","OBJECT_ID":"2021-082K","NORAD_CAT_ID":"49139","OBJECT_TYPE":"PAYLOAD","RCS_SIZE":"LARGE","RA_OF_ASC_NODE":"60.0082","SITE":"AFWTR","EPHEMERIS_TYPE":"0","GP_ID":"186483799","COUNTRY_CODE":"US","BSTAR":"-0.00061437000000","TLE_LINE2":"2 49139  70.0016  60.0082 0003579 285.7405 201.5178 15.69775434  3832","CENTER_NAME":"EARTH","MEAN_MOTION":"15.69775434","INCLINATION":"70.0016","SEMIMAJOR_AXIS":"6737.677","PERIOD":"91.733","PERIAPSIS":"357.130","ELEMENT_SET_NO":"999"},{"ARG_OF_PERICENTER":"284.6310","TLE_LINE1":"1 49140U 21082L   21280.91667824 -.00097603  00000-0 -82325-3 0  9997","FILE":"3150032","REF_FRAME":"TEME","MEAN_MOTION_DOT":"-0.00097603","DECAY_DATE":null,"MEAN_ELEMENT_THEORY":"SGP4","LAUNCH_DATE":"2021-09-14","CLASSIFICATION_TYPE":"U","MEAN_MOTION_DDOT":"0.0000000000000","EPOCH":"2021-10-07T22:00:00.999936","TIME_SYSTEM":"UTC","REV_AT_EPOCH":"383","ECCENTRICITY":"0.00034700","MEAN_ANOMALY":"208.9666","OBJECT_NAME":"STARLINK-3118","OBJECT_ID":"2021-082L","APOAPSIS":"361.779","SITE":"AFWTR","RCS_SIZE":"LARGE","RA_OF_ASC_NODE":"60.0026","NORAD_CAT_ID":"49140","OBJECT_TYPE":"PAYLOAD","BSTAR":"-0.00082325000000","COUNTRY_CODE":"US","GP_ID":"186484188","EPHEMERIS_TYPE":"0","MEAN_MOTION":"15.69810423","CENTER_NAME":"EARTH","TLE_LINE2":"2 49140  70.0015  60.0026 0003470 284.6310 208.9666 15.69810423  3835","ELEMENT_SET_NO":"999","PERIOD":"91.731","PERIAPSIS":"357.103","SEMIMAJOR_AXIS":"6737.576","INCLINATION":"70.0015"},{"ECCENTRICITY":"0.00035050","MEAN_ANOMALY":"210.7170","OBJECT_NAME":"STARLINK-3093","OBJECT_ID":"2021-082M","APOAPSIS":"361.900","ARG_OF_PERICENTER":"280.8148","TLE_LINE1":"1 49141U 21082M   21280.91667824 -.00095108  00000-0 -80304-3 0  9991","FILE":"3150302","REF_FRAME":"TEME","MEAN_MOTION_DOT":"-0.00095108","DECAY_DATE":null,"MEAN_ELEMENT_THEORY":"SGP4","CLASSIFICATION_TYPE":"U","LAUNCH_DATE":"2021-09-14","EPOCH":"2021-10-07T22:00:00.999936","MEAN_MOTION_DDOT":"0.0000000000000","TIME_SYSTEM":"UTC","REV_AT_EPOCH":"369","MEAN_MOTION":"15.69776542","CENTER_NAME":"EARTH","TLE_LINE2":"2 49141  70.0009  60.0035 0003505 280.8148 210.7170 15.69776542  3693","ELEMENT_SET_NO":"999","PERIOD":"91.733","PERIAPSIS":"357.177","SEMIMAJOR_AXIS":"6737.673","INCLINATION":"70.0009","SITE":"AFWTR","RCS_SIZE":"LARGE","RA_OF_ASC_NODE":"60.0035","NORAD_CAT_ID":"49141","OBJECT_TYPE":"PAYLOAD","BSTAR":"-0.00080304000000","COUNTRY_CODE":"US","GP_ID":"186513241","EPHEMERIS_TYPE":"0"},{"ARG_OF_PERICENTER":"286.1115","TLE_LINE1":"1 49142U 21082N   21280.91667824 -.00111921  00000-0 -94598-3 0  9994","FILE":"3150302","REF_FRAME":"TEME","MEAN_MOTION_DOT":"-0.00111921","DECAY_DATE":null,"MEAN_ELEMENT_THEORY":"SGP4","CLASSIFICATION_TYPE":"U","LAUNCH_DATE":"2021-09-14","MEAN_MOTION_DDOT":"0.0000000000000","EPOCH":"2021-10-07T22:00:00.999936","REV_AT_EPOCH":"369","TIME_SYSTEM":"UTC","ECCENTRICITY":"0.00036270","MEAN_ANOMALY":"209.6327","OBJECT_NAME":"STARLINK-3042","OBJECT_ID":"2021-082N","APOAPSIS":"361.895","SITE":"AFWTR","RCS_SIZE":"LARGE","RA_OF_ASC_NODE":"59.9998","NORAD_CAT_ID":"49142","OBJECT_TYPE":"PAYLOAD","BSTAR":"-0.00094598000000","COUNTRY_CODE":"US","GP_ID":"186513507","EPHEMERIS_TYPE":"0","MEAN_MOTION":"15.69806833","CENTER_NAME":"EARTH","TLE_LINE2":"2 49142  70.0008  59.9998 0003627 286.1115 209.6327 15.69806833  3694","ELEMENT_SET_NO":"999","PERIOD":"91.731","PERIAPSIS":"357.008","SEMIMAJOR_AXIS":"6737.587","INCLINATION":"70.0008"},{"OBJECT_NAME":"STARLINK-3109","ECCENTRICITY":"0.00035800","MEAN_ANOMALY":"214.4005","APOAPSIS":"361.812","OBJECT_ID":"2021-082P","REF_FRAME":"TEME","FILE":"3150032","DECAY_DATE":null,"MEAN_MOTION_DOT":"-0.00151683","ARG_OF_PERICENTER":"283.4895","TLE_LINE1":"1 49143U 21082P   21280.91667824 -.00151683  00000-0 -12878-2 0  9994","MEAN_MOTION_DDOT":"0.0000000000000","EPOCH":"2021-10-07T22:00:00.999936","REV_AT_EPOCH":"383","TIME_SYSTEM":"UTC","MEAN_ELEMENT_THEORY":"SGP4","CLASSIFICATION_TYPE":"U","LAUNCH_DATE":"2021-09-14","CENTER_NAME":"EARTH","TLE_LINE2":"2 49143  70.0008  59.9978 0003580 283.4895 214.4005 15.69824826  3831","MEAN_MOTION":"15.69824826","SEMIMAJOR_AXIS":"6737.535","INCLINATION":"70.0008","ELEMENT_SET_NO":"999","PERIOD":"91.730","PERIAPSIS":"356.988","RCS_SIZE":"LARGE","RA_OF_ASC_NODE":"59.9978","NORAD_CAT_ID":"49143","OBJECT_TYPE":"PAYLOAD","SITE":"AFWTR","COUNTRY_CODE":"US","GP_ID":"186483796","EPHEMERIS_TYPE":"0","BSTAR":"-0.00128780000000"},{"OBJECT_ID":"2021-082Q","APOAPSIS":"361.920","MEAN_ANOMALY":"217.6568","ECCENTRICITY":"0.00036140","OBJECT_NAME":"STARLINK-3100","CLASSIFICATION_TYPE":"U","LAUNCH_DATE":"2021-09-14","MEAN_ELEMENT_THEORY":"SGP4","TIME_SYSTEM":"UTC","REV_AT_EPOCH":"383","MEAN_MOTION_DDOT":"0.0000000000000","EPOCH":"2021-10-07T22:00:00.999936","ARG_OF_PERICENTER":"284.4782","TLE_LINE1":"1 49144U 21082Q   21280.91667824 -.00085571  00000-0 -72094-3 0  9994","DECAY_DATE":null,"MEAN_MOTION_DOT":"-0.00085571","FILE":"3150032","REF_FRAME":"TEME","PERIOD":"91.732","PERIAPSIS":"357.050","ELEMENT_SET_NO":"999","INCLINATION":"70.0012","SEMIMAJOR_AXIS":"6737.620","MEAN_MOTION":"15.69795256","TLE_LINE2":"2 49144  70.0012  59.9919 0003614 284.4782 217.6568 15.69795256  3839","CENTER_NAME":"EARTH","BSTAR":"-0.00072094000000","GP_ID":"186483792","EPHEMERIS_TYPE":"0","COUNTRY_CODE":"US","SITE":"AFWTR","OBJECT_TYPE":"PAYLOAD","NORAD_CAT_ID":"49144","RCS_SIZE":"LARGE","RA_OF_ASC_NODE":"59.9919"},{"SEMIMAJOR_AXIS":"6737.638","INCLINATION":"70.0014","ELEMENT_SET_NO":"999","PERIOD":"91.732","PERIAPSIS":"356.989","CENTER_NAME":"EARTH","TLE_LINE2":"2 49145  70.0014  59.9882 0003732 282.2813 224.0948 15.69788809  3833","MEAN_MOTION":"15.69788809","COUNTRY_CODE":"US","GP_ID":"186484191","EPHEMERIS_TYPE":"0","BSTAR":"-0.00073269000000","RCS_SIZE":"LARGE","RA_OF_ASC_NODE":"59.9882","NORAD_CAT_ID":"49145","OBJECT_TYPE":"PAYLOAD","SITE":"AFWTR","APOAPSIS":"362.018","OBJECT_ID":"2021-082R","OBJECT_NAME":"STARLINK-3119","ECCENTRICITY":"0.00037320","MEAN_ANOMALY":"224.0948","EPOCH":"2021-10-07T22:00:00.999936","MEAN_MOTION_DDOT":"0.0000000000000","REV_AT_EPOCH":"383","TIME_SYSTEM":"UTC","MEAN_ELEMENT_THEORY":"SGP4","LAUNCH_DATE":"2021-09-14","CLASSIFICATION_TYPE":"U","FILE":"3150032","REF_FRAME":"TEME","DECAY_DATE":null,"MEAN_MOTION_DOT":"-0.00086928","ARG_OF_PERICENTER":"282.2813","TLE_LINE1":"1 49145U 21082R   21280.91667824 -.00086928  00000-0 -73269-3 0  9997"},{"OBJECT_NAME":"STARLINK-3116","ECCENTRICITY":"0.00034580","MEAN_ANOMALY":"219.7720","APOAPSIS":"361.777","OBJECT_ID":"2021-082S","REF_FRAME":"TEME","FILE":"3149628","DECAY_DATE":null,"MEAN_MOTION_DOT":"-0.00134709","TLE_LINE1":"1 49146U 21082S   21280.91667824 -.00134709  00000-0 -11420-2 0  9999","ARG_OF_PERICENTER":"284.5072","EPOCH":"2021-10-07T22:00:00.999936","MEAN_MOTION_DDOT":"0.0000000000000","TIME_SYSTEM":"UTC","REV_AT_EPOCH":"500","MEAN_ELEMENT_THEORY":"SGP4","CLASSIFICATION_TYPE":"U","LAUNCH_DATE":"2021-09-14","CENTER_NAME":"EARTH","TLE_LINE2":"2 49146  70.0021  59.9898 0003458 284.5072 219.7720 15.69808559  5001","MEAN_MOTION":"15.69808559","SEMIMAJOR_AXIS":"6737.582","INCLINATION":"70.0021","ELEMENT_SET_NO":"999","PERIAPSIS":"357.117","PERIOD":"91.731","RA_OF_ASC_NODE":"59.9898","RCS_SIZE":"LARGE","NORAD_CAT_ID":"49146","OBJECT_TYPE":"PAYLOAD","SITE":"AFWTR","COUNTRY_CODE":"US","GP_ID":"186471680","EPHEMERIS_TYPE":"0","BSTAR":"-0.00114200000000"},{"SITE":"AFWTR","NORAD_CAT_ID":"49147","OBJECT_TYPE":"PAYLOAD","RA_OF_ASC_NODE":"59.9955","RCS_SIZE":"LARGE","BSTAR":"-0.00029925000000","GP_ID":"186471655","EPHEMERIS_TYPE":"0","COUNTRY_CODE":"US","MEAN_MOTION":"15.69747578","TLE_LINE2":"2 49147  70.0014  59.9955 0003556 284.2065 215.8466 15.69747578  5003","CENTER_NAME":"EARTH","PERIAPSIS":"357.225","PERIOD":"91.734","ELEMENT_SET_NO":"999","INCLINATION":"70.0014","SEMIMAJOR_AXIS":"6737.756","TLE_LINE1":"1 49147U 21082T   21280.91667824 -.00035782  00000-0 -29925-3 0  9991","ARG_OF_PERICENTER":"284.2065","MEAN_MOTION_DOT":"-0.00035782","DECAY_DATE":null,"REF_FRAME":"TEME","FILE":"3149533","CLASSIFICATION_TYPE":"U","LAUNCH_DATE":"2021-09-14","MEAN_ELEMENT_THEORY":"SGP4","REV_AT_EPOCH":"500","TIME_SYSTEM":"UTC","MEAN_MOTION_DDOT":"0.0000000000000","EPOCH":"2021-10-07T22:00:00.999936","MEAN_ANOMALY":"215.8466","ECCENTRICITY":"0.00035560","OBJECT_NAME":"STARLINK-3071","OBJECT_ID":"2021-082T","APOAPSIS":"362.017"}];
